{
  "updatedAt": "2026-03-18T17:33:28.120Z",
  "entries": {
    "kompsat-5": {
      "fetchedAt": "2026-03-18T17:33:28.120Z",
      "fleetEntry": {
        "id": "kompsat-5",
        "name": "KOMPSAT-5",
        "domesticName": "아리랑위성 5호",
        "color": "#9bdeac",
        "norad": "39227",
        "orbitClass": "leo",
        "orbitLabel": "LEO SSO",
        "missionType": "earth-observation",
        "missionLabel": "상업 지구관측",
        "operationalStatus": "운용 중",
        "sourceDate": "2026-03-18",
        "sourceLabel": "Space-Track cached GP",
        "omm": {
          "CCSDS_OMM_VERS": "3.0",
          "COMMENT": "GENERATED VIA SPACE-TRACK.ORG API",
          "CREATION_DATE": "2026-03-18T16:16:27",
          "ORIGINATOR": "18 SPCS",
          "OBJECT_NAME": "KOMPSAT 5",
          "OBJECT_ID": "2013-042A",
          "CENTER_NAME": "EARTH",
          "REF_FRAME": "TEME",
          "TIME_SYSTEM": "UTC",
          "MEAN_ELEMENT_THEORY": "SGP4",
          "EPOCH": "2026-03-18T12:21:59.696064",
          "MEAN_MOTION": 15.04506725,
          "ECCENTRICITY": 0.0005003,
          "INCLINATION": 97.6211,
          "RA_OF_ASC_NODE": 265.4765,
          "ARG_OF_PERICENTER": 90.5893,
          "MEAN_ANOMALY": 269.5906,
          "EPHEMERIS_TYPE": 0,
          "CLASSIFICATION_TYPE": "U",
          "NORAD_CAT_ID": 39227,
          "ELEMENT_SET_NO": 999,
          "REV_AT_EPOCH": 69022,
          "BSTAR": 0.000088327,
          "MEAN_MOTION_DOT": 0.00001176,
          "MEAN_MOTION_DDOT": 0,
          "SEMIMAJOR_AXIS": "6931.157",
          "PERIOD": "95.712",
          "APOAPSIS": "556.490",
          "PERIAPSIS": "549.555",
          "OBJECT_TYPE": "PAYLOAD",
          "RCS_SIZE": "LARGE",
          "COUNTRY_CODE": "SKOR",
          "LAUNCH_DATE": "2013-08-22",
          "SITE": "OREN",
          "DECAY_DATE": null,
          "FILE": "5089679",
          "GP_ID": "316323069",
          "TLE_LINE0": "0 KOMPSAT 5",
          "TLE_LINE1": "1 39227U 13042A   26077.51527426  .00001176  00000-0  88327-4 0  9994",
          "TLE_LINE2": "2 39227  97.6211 265.4765 0005003  90.5893 269.5906 15.04506725690229"
        }
      }
    },
    "koreasat-5a": {
      "fetchedAt": "2026-03-18T17:33:28.120Z",
      "fleetEntry": {
        "id": "koreasat-5a",
        "name": "KOREASAT 5A",
        "domesticName": "무궁화 5A호",
        "color": "#8bd0ff",
        "norad": "42984",
        "orbitClass": "geo",
        "orbitLabel": "GEO",
        "missionType": "communications",
        "missionLabel": "상업 통신",
        "operationalStatus": "운용 중",
        "orbitalSlot": "113°E",
        "sourceDate": "2026-03-18",
        "sourceLabel": "Space-Track cached GP",
        "omm": {
          "CCSDS_OMM_VERS": "3.0",
          "COMMENT": "GENERATED VIA SPACE-TRACK.ORG API",
          "CREATION_DATE": "2026-03-18T16:16:27",
          "ORIGINATOR": "18 SPCS",
          "OBJECT_NAME": "KOREASAT 5A",
          "OBJECT_ID": "2017-067A",
          "CENTER_NAME": "EARTH",
          "REF_FRAME": "TEME",
          "TIME_SYSTEM": "UTC",
          "MEAN_ELEMENT_THEORY": "SGP4",
          "EPOCH": "2026-03-18T11:40:38.697600",
          "MEAN_MOTION": 1.00267674,
          "ECCENTRICITY": 0.0001848,
          "INCLINATION": 0.0183,
          "RA_OF_ASC_NODE": 178.4265,
          "ARG_OF_PERICENTER": 205.0281,
          "MEAN_ANOMALY": 80.9148,
          "EPHEMERIS_TYPE": 0,
          "CLASSIFICATION_TYPE": "U",
          "NORAD_CAT_ID": 42984,
          "ELEMENT_SET_NO": 999,
          "REV_AT_EPOCH": 3062,
          "BSTAR": 0,
          "MEAN_MOTION_DOT": 0,
          "MEAN_MOTION_DDOT": 0,
          "SEMIMAJOR_AXIS": "42165.884",
          "PERIOD": "1436.156",
          "APOAPSIS": "35795.542",
          "PERIAPSIS": "35779.957",
          "OBJECT_TYPE": "PAYLOAD",
          "RCS_SIZE": "LARGE",
          "COUNTRY_CODE": "SKOR",
          "LAUNCH_DATE": "2017-10-30",
          "SITE": "AFETR",
          "DECAY_DATE": null,
          "FILE": "5089732",
          "GP_ID": "316324261",
          "TLE_LINE0": "0 KOREASAT 5A",
          "TLE_LINE1": "1 42984U 17067A   26077.48655900  .00000000  00000-0  00000+0 0  9996",
          "TLE_LINE2": "2 42984   0.0183 178.4265 0001848 205.0281  80.9148  1.00267674 30627"
        }
      }
    },
    "koreasat-6a": {
      "fetchedAt": "2026-03-18T17:33:28.120Z",
      "fleetEntry": {
        "id": "koreasat-6a",
        "name": "KOREASAT 6A",
        "domesticName": "무궁화 6A호",
        "color": "#65d4a8",
        "norad": "61910",
        "orbitClass": "geo",
        "orbitLabel": "GEO",
        "missionType": "communications",
        "missionLabel": "상업 통신",
        "operationalStatus": "운용 중",
        "orbitalSlot": "116°E",
        "sourceDate": "2026-03-18",
        "sourceLabel": "Space-Track cached GP",
        "omm": {
          "CCSDS_OMM_VERS": "3.0",
          "COMMENT": "GENERATED VIA SPACE-TRACK.ORG API",
          "CREATION_DATE": "2026-03-18T16:26:39",
          "ORIGINATOR": "18 SPCS",
          "OBJECT_NAME": "KOREASAT 6A",
          "OBJECT_ID": "2024-206A",
          "CENTER_NAME": "EARTH",
          "REF_FRAME": "TEME",
          "TIME_SYSTEM": "UTC",
          "MEAN_ELEMENT_THEORY": "SGP4",
          "EPOCH": "2026-03-18T11:40:38.697600",
          "MEAN_MOTION": 1.00269906,
          "ECCENTRICITY": 0.0000589,
          "INCLINATION": 0.028,
          "RA_OF_ASC_NODE": 230.5463,
          "ARG_OF_PERICENTER": 125.2546,
          "MEAN_ANOMALY": 111.4075,
          "EPHEMERIS_TYPE": 0,
          "CLASSIFICATION_TYPE": "U",
          "NORAD_CAT_ID": 61910,
          "ELEMENT_SET_NO": 999,
          "REV_AT_EPOCH": 492,
          "BSTAR": 0,
          "MEAN_MOTION_DOT": -0.0000036,
          "MEAN_MOTION_DDOT": 0,
          "SEMIMAJOR_AXIS": "42165.259",
          "PERIOD": "1436.124",
          "APOAPSIS": "35789.607",
          "PERIAPSIS": "35784.640",
          "OBJECT_TYPE": "PAYLOAD",
          "RCS_SIZE": null,
          "COUNTRY_CODE": "SKOR",
          "LAUNCH_DATE": "2024-11-11",
          "SITE": "AFETR",
          "DECAY_DATE": null,
          "FILE": "5090271",
          "GP_ID": "316335060",
          "TLE_LINE0": "0 KOREASAT 6A",
          "TLE_LINE1": "1 61910U 24206A   26077.48655900 -.00000360  00000-0  00000+0 0  9999",
          "TLE_LINE2": "2 61910   0.0280 230.5463 0000589 125.2546 111.4075  1.00269906  4926"
        }
      }
    }
  }
}